TECHDEMOSAT-1 (TDS-1)   
1 40076U 14037H   26068.92236573  .00011104  00000+0  65800-3 0  9999
2 40076  98.3776  51.4583 0004745 234.8100 125.2683 15.11581991633227
STARLINK-4029           
1 52685U 22053AF  26068.53022492 -.00002372  00000+0 -13096-3 0  9994
2 52685  53.2172 144.8387 0000971  77.1563 282.9538 15.08851341211095
